NORAD_CAT_ID,OBJECT_NAME,OBJECT_TYPE,EPOCH,MEAN_MOTION,ECCENTRICITY,INCLINATION,RA_OF_ASC_NODE,ARG_OF_PERICENTER,MEAN_ANOMALY,BSTAR,MEAN_MOTION_DOT,MEAN_MOTION_DDOT,TLE_LINE0,TLE_LINE1,TLE_LINE2,SEMIMAJOR_AXIS,PERIOD,APOGEE,PERIGEE,DECAYED
50168.0,STARLINK-3296,PAYLOAD,2022-02-10 18:11:48,15.67285435,9.18e-05,53.2147,97.3182,22.0117,338.094,-0.0029532,-0.00312442,0.0,0 STARLINK-3296,1 50168U 21125N   22041.75820285 -.00312442  00000-0 -29532-2 0  9998,2 50168  53.2147  97.3182 0000918  22.0117 338.0940 15.67285435  8758,6744.811,91.879,367.295,366.057,0.0
50168.0,STARLINK-3296,PAYLOAD,2022-02-10 22:00:00,15.66499471,0.000119,53.2175,96.5145,70.7412,103.5177,-0.0067051,-0.00658476,0.0,0 STARLINK-3296,1 50168U 21125N   22041.91667824 -.00658476  00000-0 -67051-2 0  9992,2 50168  53.2175  96.5145 0001190  70.7412 103.5177 15.66499471  3679,6747.066999999999,91.925,369.735,368.129,0.0
50168.0,STARLINK-3296,PAYLOAD,2022-02-11 06:00:00,15.66033284,0.0001216,53.2178,94.881,77.3221,177.5299,-0.00684,-0.00659104,0.0,0 STARLINK-3296,1 50168U 21125N   22042.25001157 -.00659104  00000-0 -68400-2 0  9999,2 50168  53.2178  94.8810 0001216  77.3221 177.5299 15.66033284  8837,6748.406,91.952,371.091,369.45,0.0
50168.0,STARLINK-3296,PAYLOAD,2022-02-11 14:00:01,15.65564902,0.0001058,53.2175,93.2499,82.4862,252.3981,-0.0069346999999999,-0.00655939,0.0,0 STARLINK-3296,1 50168U 21125N   22042.58334491 -.00655939  00000-0 -69347-2 0  9998,2 50168  53.2175  93.2499 0001058  82.4862 252.3981 15.65564902  3708,6749.752,91.98,372.331,370.902,0.0
50168.0,STARLINK-3296,PAYLOAD,2022-02-11 22:00:01,15.65099062,0.0001048,53.2175,91.6163,68.2399,346.1828,-0.0070819999999999,-0.00657327,0.0,0 STARLINK-3296,1 50168U 21125N   22042.91668981 -.00657327  00000-0 -70820-2 0  9990,2 50168  53.2175  91.6163 0001048  68.2399 346.1828 15.65099062  3706,6751.090999999999,92.007,373.663,372.24800000000016,0.0
50168.0,STARLINK-3296,PAYLOAD,2022-02-12 06:00:00,15.64633772,0.0001330999999999,53.2175,89.9864,54.0805,79.1878,-0.0072388999999999,-0.0065937,0.0,0 STARLINK-3296,1 50168U 21125N   22043.25001157 -.00659370  00000-0 -72389-2 0  9996,2 50168  53.2175  89.9864 0001331  54.0805  79.1878 15.64633772  8999,6752.429,92.034,375.193,373.395,0.0
50168.0,STARLINK-3296,PAYLOAD,2022-02-12 14:00:01,15.64162782,0.000119,53.2173,88.3586,78.222,133.3977,-0.0072819999999999,-0.00651552,0.0,0 STARLINK-3296,1 50168U 21125N   22043.58334491 -.00651552  00000-0 -72820-2 0  9996,2 50168  53.2173  88.3586 0001190  78.2220 133.3977 15.64162782  3708,6753.785,92.062,376.453,374.846,0.0
50168.0,STARLINK-3296,PAYLOAD,2022-02-12 22:00:00,15.63699478,0.0001115,53.2175,86.7284,73.7854,215.6246,-0.0074873,-0.00657227,0.0,0 STARLINK-3296,1 50168U 21125N   22043.91667824 -.00657227  00000-0 -74873-2 0  9997,2 50168  53.2175  86.7284 0001115  73.7854 215.6246 15.63699478  3706,6755.119000000002,92.089,377.737,376.23,0.0
50168.0,STARLINK-3296,PAYLOAD,2022-02-13 14:00:01,15.62765138,0.0001122,53.2173,83.4774,64.1965,19.1111,-0.0077358,-0.00654643,0.0,0 STARLINK-3296,1 50168U 21125N   22044.58334491 -.00654643  00000-0 -77358-2 0  9992,2 50168  53.2173  83.4774 0001122  64.1965  19.1111 15.62765138  9190,6757.811,92.144,380.434,378.918,0.0
50168.0,STARLINK-3296,PAYLOAD,2022-02-14 12:00:02,15.6148138,0.000128,53.2176,79.0119,72.9834,128.3384,-0.0081201,-0.006536,0.0,0 STARLINK-3296,1 50168U 21125N   22045.50002315 -.00653600  00000-0 -81201-2 0  9996,2 50168  53.2176  79.0119 0001280  72.9834 128.3384 15.61481380  9349,6761.514,92.22,384.245,382.514,0.0
50168.0,STARLINK-3296,PAYLOAD,2022-02-14 14:00:01,15.61366493,0.0001099,53.2173,78.6064,76.0232,233.9269,-0.0081838,-0.00655595,0.0,0 STARLINK-3296,1 50168U 21125N   22045.58334491 -.00655595  00000-0 -81838-2 0  9998,2 50168  53.2173  78.6064 0001099  76.0232 233.9269 15.61366493  3699,6761.846,92.227,384.454,382.968,0.0
50168.0,STARLINK-3296,PAYLOAD,2022-02-14 20:00:01,15.61019139,0.0001208,53.2175,77.3886,67.5176,208.3051,-0.0083665,-0.00660835,0.0,0 STARLINK-3296,1 50168U 21125N   22045.83334491 -.00660835  00000-0 -83665-2 0  9999,2 50168  53.2175  77.3886 0001208  67.5176 208.3051 15.61019139  3689,6762.849,92.247,385.531,383.897,0.0
50168.0,STARLINK-3296,PAYLOAD,2022-02-15 14:00:01,15.59850944,0.0001486,53.2161,73.7471,50.2717,121.3349,-0.0064676999999999,-0.00498358,0.0,0 STARLINK-3296,1 50168U 21125N   22046.58334491 -.00498358  00000-0 -64677-2 0  9993,2 50168  53.2161  73.7471 0001486  50.2717 121.3349 15.59850944  9518,6766.225,92.317,389.096,387.085,0.0
50168.0,STARLINK-3296,PAYLOAD,2022-02-15 22:00:01,15.59499528,0.000129,53.2174,72.1255,61.2052,183.1534,-0.0087838,-0.00654823,0.0,0 STARLINK-3296,1 50168U 21125N   22046.91668981 -.00654823  00000-0 -87838-2 0  9999,2 50168  53.2174  72.1255 0001290  61.2052 183.1534 15.59499528  9566,6767.2419999999975,92.337,389.979,388.234,0.0
50168.0,STARLINK-3296,PAYLOAD,2022-02-16 14:00:01,15.58568197,0.000107,53.2172,68.8949,66.6238,321.4746,-0.0091336,-0.00656909,0.0,0 STARLINK-3296,1 50168U 21125N   22047.58334491 -.00656909  00000-0 -91336-2 0  9994,2 50168  53.2172  68.8949 0001070  66.6238 321.4746 15.58568197  3695,6769.937,92.392,392.526,391.078,0.0
50168.0,STARLINK-3296,PAYLOAD,2022-02-16 22:00:00,15.57959015,0.0001135,53.2168,67.2798,44.6546,54.581,-0.0064386,-0.00463614,0.0,0 STARLINK-3296,1 50168U 21125N   22047.91667824 -.00463614  00000-0 -64386-2 0  9994,2 50168  53.2168  67.2798 0001135  44.6546  54.5810 15.57959015  9712,6771.7019999999975,92.429,394.335,392.798,0.0
50168.0,STARLINK-3296,PAYLOAD,2022-02-17 06:00:00,15.57542076,0.0001469,53.2168,65.6671,69.2645,100.4494,-0.0076263999999999,-0.00535739,0.0,0 STARLINK-3296,1 50168U 21125N   22048.25001157 -.00535739  00000-0 -76264-2 0  9999,2 50168  53.2168  65.6671 0001469  69.2645 100.4494 15.57542076  9777,6772.91,92.453,395.77,393.78,0.0
50168.0,STARLINK-3296,PAYLOAD,2022-02-17 14:00:01,15.57169475,0.0001254,53.217,64.0542,71.4405,168.1639,-0.0096689,-0.006594,0.0,0 STARLINK-3296,1 50168U 21125N   22048.58334491 -.00659400  00000-0 -96689-2 0  9990,2 50168  53.2170  64.0542 0001254  71.4405 168.1639 15.57169475  9827,6773.991,92.475,396.705,395.006,0.0
50168.0,STARLINK-3296,PAYLOAD,2022-02-17 22:00:00,15.56699653,0.0001198,53.2172,62.4412,66.0921,242.8954,-0.0097559,-0.00654126,0.0,0 STARLINK-3296,1 50168U 21125N   22048.91667824 -.00654126  00000-0 -97559-2 0  9993,2 50168  53.2172  62.4412 0001198  66.0921 242.8954 15.56699653  3703,6775.353,92.503,398.03,396.407,0.0
50168.0,STARLINK-3296,PAYLOAD,2022-02-18 14:00:01,15.55768727,0.0001163,53.217,59.2239,62.8094,23.2554,-0.010149,-0.00656992,0.0,0 STARLINK-3296,1 50168U 21125N   22049.58334491 -.00656992  00000-0 -10149-1 0  9990,2 50168  53.2170  59.2239 0001163  62.8094  23.2554 15.55768727  3704,6778.056,92.559,400.709,399.133,0.0
50168.0,STARLINK-3296,PAYLOAD,2022-02-18 20:00:01,15.55416869,0.0001188,53.2174,58.0164,53.5273,353.3658,-0.010238,-0.00654368,0.0,0 STARLINK-3296,1 50168U 21125N   22049.83334491 -.00654368  00000-0 -10238-1 0  9992,2 50168  53.2174  58.0164 0001188  53.5273 353.3658 15.55416869 10016,6779.078,92.58,401.74800000000016,400.138,0.0
50168.0,STARLINK-3296,PAYLOAD,2022-02-19 14:00:01,15.54232024,0.0001147,53.2163,54.4047,48.5914,238.9619,-0.0076196,-0.00476766,0.0,0 STARLINK-3296,1 50168U 21125N   22050.58334491 -.00476766  00000-0 -76196-2 0  9996,2 50168  53.2163  54.4047 0001147  48.5914 238.9619 15.54232024  3661,6782.523,92.65,405.166,403.61,0.0
50168.0,STARLINK-3296,PAYLOAD,2022-02-19 22:00:00,15.53770566,0.0001404,53.2166,52.7985,42.7096,310.8591,-0.0078741,-0.0048401,0.0,0 STARLINK-3296,1 50168U 21125N   22050.91667824 -.00484010  00000-0 -78741-2 0  9991,2 50168  53.2166  52.7985 0001404  42.7096 310.8591 15.53770566 10180,6783.866,92.678,406.6830000000001,404.778,0.0
50168.0,STARLINK-3296,PAYLOAD,2022-02-20 06:00:00,15.53331235,0.0001247,53.217,51.197,53.3364,5.6716,-0.0086176,-0.00518957,0.0,0 STARLINK-3296,1 50168U 21125N   22051.25001157 -.00518957  00000-0 -86176-2 0  9999,2 50168  53.2170  51.1970 0001247  53.3364   5.6716 15.53331235 10233,6785.145,92.704,407.856,406.164,0.0
50168.0,STARLINK-3296,PAYLOAD,2022-02-20 14:00:01,15.52870437,0.0001291999999999,53.2161,49.5948,44.5878,79.3092,-0.0088084,-0.00521463,0.0,0 STARLINK-3296,1 50168U 21125N   22051.58334491 -.00521463  00000-0 -88084-2 0  9991,2 50168  53.2161  49.5948 0001292  44.5878  79.3092 15.52870437 10293,6786.486999999999,92.731,409.229,407.475,0.0
50168.0,STARLINK-3296,PAYLOAD,2022-02-20 22:00:00,15.52503089,0.0001440999999999,53.2172,47.9905,55.8518,132.332,-0.011461,-0.00657998,0.0,0 STARLINK-3296,1 50168U 21125N   22051.91667824 -.00657998  00000-0 -11461-1 0  9994,2 50168  53.2172  47.9905 0001441  55.8518 132.3320 15.52503089 10348,6787.558000000001,92.753,410.401,408.444,0.0
50168.0,STARLINK-3296,PAYLOAD,2022-02-21 22:00:00,15.50968722,0.0001111,53.2165,43.1951,55.8534,322.0406,-0.00854,-0.00474846,0.0,0 STARLINK-3296,1 50168U 21125N   22052.91667824 -.00474846  00000-0 -85400-2 0  9999,2 50168  53.2165  43.1951 0001111  55.8534 322.0406 15.50968722  3668,6792.033,92.845,414.653,413.144,0.0
50168.0,STARLINK-3296,PAYLOAD,2022-02-22 04:00:00,15.50752763,0.0001318,53.2174,41.9979,54.3044,280.1415,-0.012168,-0.00656014,0.0,0 STARLINK-3296,1 50168U 21125N   22053.16667824 -.00656014  00000-0 -12168-1 0  9996,2 50168  53.2174  41.9979 0001318  54.3044 280.1415 15.50752763 10537,6792.6640000000025,92.858,415.424,413.634,0.0
50168.0,STARLINK-3296,PAYLOAD,2022-02-22 14:00:01,15.50169714,0.0001303,53.2172,40.0032,60.7025,80.7458,-0.012432,-0.0065638999999999,0.0,0 STARLINK-3296,1 50168U 21125N   22053.58334491 -.00656390  00000-0 -12432-1 0  9994,2 50168  53.2172  40.0032 0001303  60.7025  80.7458 15.50169714  3686,6794.3669999999975,92.893,417.117,415.347,0.0
